*******************************************************************************
JPL/HORIZONS               1524 Joensuu (1939 SB)          2023-Sep-04 11:12:39
Rec #:    1524 (+COV) Soln.date: 2023-Aug-22_04:21:08   # obs: 5652 (1995-2023)
 
IAU76/J2000 helio. ecliptic osc. elements (au, days, deg., period=Julian yrs):
 
  EPOCH=  2457421.5 ! 2016-Feb-03.00 (TDB)         Residual RMS= .24109
   EC= .1219091949797094   QR= 2.730729945479938   TP= 2457507.9692042861
   OM= 347.7262995905821   W=  2.948502827288979   IN= 12.68774392727887
   A= 3.109849152123666    MA= 344.4598018809504   ADIST= 3.488968358767394
   PER= 5.48425            N= .179719453           ANGMOM= .030109232
   DAN= 2.73112            DDN= 3.48833            L= 350.602927
   B= .6473298             MOID= 1.72370005        TP= 2016-Apr-29.4692042861
 
Asteroid physical parameters (km, seconds, rotational period in hours):
   GM= n.a.                RAD= 22.528             ROTPER= 9.276
   H= 10.73                G= .150                 B-V= n.a.
                           ALBEDO= .064            STYP= n.a.

ASTEROID comments: 
1: soln ref.= JPL#56, OCC=0
2: source=ORB
*******************************************************************************


*******************************************************************************
Ephemeris / API_USER Mon Sep  4 11:12:39 2023 Pasadena, USA      / Horizons
*******************************************************************************
Target body name: 1524 Joensuu (1939 SB)          {source: JPL#56}
Center body name: Solar System Barycenter (0)     {source: DE441}
Center-site name: BODY CENTER
*******************************************************************************
Start time      : A.D. 2023-Aug-12 00:00:00.0000 TDB
Stop  time      : A.D. 2023-Aug-13 00:00:00.0000 TDB
Step-size       : 2880 minutes
*******************************************************************************
Center geodetic : 0.0, 0.0, 0.0                   {E-lon(deg),Lat(deg),Alt(km)}
Center cylindric: 0.0, 0.0, 0.0                   {E-lon(deg),Dxy(km),Dz(km)}
Center radii    : (undefined)
Small perturbers: Yes                             {source: SB441-N16}
Output units    : KM-S
Calendar mode   : Mixed Julian/Gregorian
Output type     : GEOMETRIC cartesian states
Output format   : 2 (position and velocity)
Reference frame : Ecliptic of J2000.0
*******************************************************************************
Initial IAU76/J2000 heliocentric ecliptic osculating elements (au, days, deg.):
  EPOCH=  2457421.5 ! 2016-Feb-03.00 (TDB)         Residual RMS= .24109        
   EC= .1219091949797094   QR= 2.730729945479938   TP= 2457507.9692042861      
   OM= 347.7262995905821   W=  2.948502827288979   IN= 12.68774392727887       
  Equivalent ICRF heliocentric cartesian coordinates (au, au/d):
   X= 2.402478426620354E+00  Y=-1.144264545486608E+00  Z=-6.881341879936402E-01
  VX= 4.940155204594887E-03 VY= 7.794809783810848E-03 VZ= 5.916205325598241E-03
Asteroid physical parameters (km, seconds, rotational period in hours):        
   GM= n.a.                RAD= 22.528             ROTPER= 9.276               
   H= 10.73                G= .150                 B-V= n.a.                   
                           ALBEDO= .064            STYP= n.a.                  
*******************************************************************************
JDTDB
   X     Y     Z
   VX    VY    VZ
*******************************************************************************
$$SOE
2460168.500000000 = A.D. 2023-Aug-12 00:00:00.0000 TDB 
 X =-2.516524760210092E+08 Y = 4.222020879877585E+08 Z = 8.094211459709510E+07
 VX=-1.429249549367816E+01 VY=-6.271613877122068E+00 VZ=-2.067496649999462E+00
$$EOE
*******************************************************************************
 
TIME

  Barycentric Dynamical Time ("TDB" or T_eph) output was requested. This
continuous coordinate time is equivalent to the relativistic proper time
of a clock at rest in a reference frame co-moving with the solar system
barycenter but outside the system's gravity well. It is the independent
variable in the solar system relativistic equations of motion.

  TDB runs at a uniform rate of one SI second per second and is independent
of irregularities in Earth's rotation.
 
CALENDAR SYSTEM

  Mixed calendar mode was active such that calendar dates after AD 1582-Oct-15
(if any) are in the modern Gregorian system. Dates prior to 1582-Oct-5 (if any)
are in the Julian calendar system, which is automatically extended for dates
prior to its adoption on 45-Jan-1 BC.  The Julian calendar is useful for
matching historical dates. The Gregorian calendar more accurately corresponds
to the Earth's orbital motion and seasons. A "Gregorian-only" calendar mode is
available if such physical events are the primary interest.

REFERENCE FRAME AND COORDINATES

  Ecliptic at the standard reference epoch

    Reference epoch: J2000.0
    X-Y plane: adopted Earth orbital plane at the reference epoch
               Note: IAU76 obliquity of 84381.448 arcseconds wrt ICRF X-Y plane
    X-axis   : ICRF
    Z-axis   : perpendicular to the X-Y plane in the directional (+ or -) sense
               of Earth's north pole at the reference epoch.

  Symbol meaning:

    JDTDB    Julian Day Number, Barycentric Dynamical Time
      X      X-component of position vector (km)
      Y      Y-component of position vector (km)
      Z      Z-component of position vector (km)
      VX     X-component of velocity vector (km/sec)                           
      VY     Y-component of velocity vector (km/sec)                           
      VZ     Z-component of velocity vector (km/sec)                           

ABERRATIONS AND CORRECTIONS

 Geometric state vectors have NO corrections or aberrations applied.

Computations by ...

    Solar System Dynamics Group, Horizons On-Line Ephemeris System
    4800 Oak Grove Drive, Jet Propulsion Laboratory
    Pasadena, CA  91109   USA

    General site: https://ssd.jpl.nasa.gov/
    Mailing list: https://ssd.jpl.nasa.gov/email_list.html
    System news : https://ssd.jpl.nasa.gov/horizons/news.html
    User Guide  : https://ssd.jpl.nasa.gov/horizons/manual.html
    Connect     : browser        https://ssd.jpl.nasa.gov/horizons/app.html#/x
                  API            https://ssd-api.jpl.nasa.gov/doc/horizons.html
                  command-line   telnet ssd.jpl.nasa.gov 6775
                  e-mail/batch   https://ssd.jpl.nasa.gov/ftp/ssd/hrzn_batch.txt
                  scripts        https://ssd.jpl.nasa.gov/ftp/ssd/SCRIPTS
    Author      : Jon.D.Giorgini@jpl.nasa.gov
*******************************************************************************
